STARLINK-36568          
1 68017U 26040C   26068.91668981 -.01166094  46295-3 -17020-2 0  9994
2 68017  97.2778  17.1138 0000866  88.8464 267.6227 16.05236140  2465
STARLINK-36930          
1 68018U 26040D   26068.91668981 -.01155612  45413-3 -17080-2 0  9996
2 68018  97.2778  17.1118 0000828  90.8728 260.5472 16.05026979  2469
STARLINK-36921          
1 68019U 26040E   26068.91668981 -.01165465  46351-3 -16823-2 0  9990
2 68019  97.2780  17.1161 0000909  98.8732 261.9757 16.05419566  2463
STARLINK-36928          
1 68020U 26040F   26068.91668981 -.01170500  46666-3 -16998-2 0  9990
2 68020  97.2776  17.1143 0000934  92.0658 266.2846 16.05320953  2469
STARLINK-36858          
1 68021U 26040G   26068.91668981 -.01173651  47013-3 -16837-2 0  9990
2 68021  97.2769  17.1161 0000872  94.6122 268.5447 16.05521937  2464
STARLINK-36916          
1 68022U 26040H   26068.91668981 -.01167808  46641-3 -16646-2 0  9992
2 68022  97.2776  17.1179 0000907  97.1355 268.6661 16.05627027  2463
STARLINK-36871          
1 68023U 26040J   26068.91668981 -.01169220  46805-3 -16560-2 0  9990
2 68023  97.2770  17.1185 0000888  95.0018 273.2998 16.05731616  2461
STARLINK-36891          
1 68024U 26040K   26068.91668981 -.01177045  47460-3 -16542-2 0  9993
2 68024  97.2769  17.1202 0000938  98.8495 272.5605 16.05860831  2465
STARLINK-36378          
1 68025U 26040L   26068.91668981 -.01161981  46464-3 -16117-2 0  9997
2 68025  97.2777  17.1226 0000894  96.2905 280.5526 16.06073686  2411
STARLINK-36884          
1 68026U 26040M   26068.91668981 -.01162450  46436-3 -16232-2 0  9997
2 68026  97.2773  17.1210 0000848  97.8588 276.3593 16.05963331  2460
STARLINK-36940          
1 68027U 26040N   26068.91668981 -.01147173  46436-3 -14176-2 0  9998
2 68027  97.2769  17.1437 0000866  84.9989 342.7519 16.07932887  2560
STARLINK-36253          
1 68028U 26040P   26068.91668981 -.02385062  15456-2 -68778-2 0  9995
2 68028  97.2781  17.0655 0001759 108.6946 142.6143 15.93228944  2561
