CCSDS_OMM_VERS = 2.0
CREATION_DATE  = 
ORIGINATOR     = 

OBJECT_NAME    = STARLINK-36568
OBJECT_ID      = 2026-040C
CENTER_NAME    = EARTH
REF_FRAME      = TEME
TIME_SYSTEM    = UTC
MEAN_ELEMENT_THEORY = SGP/SGP4

EPOCH          = 2026-03-09T22:00:01.999584
MEAN_MOTION    = 16.05236140
ECCENTRICITY   = .0000866
INCLINATION    = 97.2778
RA_OF_ASC_NODE = 17.1138
ARG_OF_PERICENTER = 88.8464
MEAN_ANOMALY   = 267.6227

EPHEMERIS_TYPE = 0
CLASSIFICATION_TYPE = U
NORAD_CAT_ID   = 68017
ELEMENT_SET_NO = 999
REV_AT_EPOCH   = 246
BSTAR          = -.17020293E-2
MEAN_MOTION_DOT = -.1166094E-1
MEAN_MOTION_DDOT = .46294541E-3

CCSDS_OMM_VERS = 2.0
CREATION_DATE  = 
ORIGINATOR     = 

OBJECT_NAME    = STARLINK-36930
OBJECT_ID      = 2026-040D
CENTER_NAME    = EARTH
REF_FRAME      = TEME
TIME_SYSTEM    = UTC
MEAN_ELEMENT_THEORY = SGP/SGP4

EPOCH          = 2026-03-09T22:00:01.999584
MEAN_MOTION    = 16.05026979
ECCENTRICITY   = .00008283
INCLINATION    = 97.2778
RA_OF_ASC_NODE = 17.1118
ARG_OF_PERICENTER = 90.8728
MEAN_ANOMALY   = 260.5472

EPHEMERIS_TYPE = 0
CLASSIFICATION_TYPE = U
NORAD_CAT_ID   = 68018
ELEMENT_SET_NO = 999
REV_AT_EPOCH   = 246
BSTAR          = -.17080367E-2
MEAN_MOTION_DOT = -.1155612E-1
MEAN_MOTION_DDOT = .4541326E-3

CCSDS_OMM_VERS = 2.0
CREATION_DATE  = 
ORIGINATOR     = 

OBJECT_NAME    = STARLINK-36921
OBJECT_ID      = 2026-040E
CENTER_NAME    = EARTH
REF_FRAME      = TEME
TIME_SYSTEM    = UTC
MEAN_ELEMENT_THEORY = SGP/SGP4

EPOCH          = 2026-03-09T22:00:01.999584
MEAN_MOTION    = 16.05419566
ECCENTRICITY   = .00009099
INCLINATION    = 97.2780
RA_OF_ASC_NODE = 17.1161
ARG_OF_PERICENTER = 98.8732
MEAN_ANOMALY   = 261.9757

EPHEMERIS_TYPE = 0
CLASSIFICATION_TYPE = U
NORAD_CAT_ID   = 68019
ELEMENT_SET_NO = 999
REV_AT_EPOCH   = 246
BSTAR          = -.16822888E-2
MEAN_MOTION_DOT = -.1165465E-1
MEAN_MOTION_DDOT = .46350949E-3

CCSDS_OMM_VERS = 2.0
CREATION_DATE  = 
ORIGINATOR     = 

OBJECT_NAME    = STARLINK-36928
OBJECT_ID      = 2026-040F
CENTER_NAME    = EARTH
REF_FRAME      = TEME
TIME_SYSTEM    = UTC
MEAN_ELEMENT_THEORY = SGP/SGP4

EPOCH          = 2026-03-09T22:00:01.999584
MEAN_MOTION    = 16.05320953
ECCENTRICITY   = .00009343
INCLINATION    = 97.2776
RA_OF_ASC_NODE = 17.1143
ARG_OF_PERICENTER = 92.0658
MEAN_ANOMALY   = 266.2846

EPHEMERIS_TYPE = 0
CLASSIFICATION_TYPE = U
NORAD_CAT_ID   = 68020
ELEMENT_SET_NO = 999
REV_AT_EPOCH   = 246
BSTAR          = -.16997597E-2
MEAN_MOTION_DOT = -.11705E-1
MEAN_MOTION_DDOT = .46666201E-3

CCSDS_OMM_VERS = 2.0
CREATION_DATE  = 
ORIGINATOR     = 

OBJECT_NAME    = STARLINK-36858
OBJECT_ID      = 2026-040G
CENTER_NAME    = EARTH
REF_FRAME      = TEME
TIME_SYSTEM    = UTC
MEAN_ELEMENT_THEORY = SGP/SGP4

EPOCH          = 2026-03-09T22:00:01.999584
MEAN_MOTION    = 16.05521937
ECCENTRICITY   = .00008726
INCLINATION    = 97.2769
RA_OF_ASC_NODE = 17.1161
ARG_OF_PERICENTER = 94.6122
MEAN_ANOMALY   = 268.5447

EPHEMERIS_TYPE = 0
CLASSIFICATION_TYPE = U
NORAD_CAT_ID   = 68021
ELEMENT_SET_NO = 999
REV_AT_EPOCH   = 246
BSTAR          = -.16837377E-2
MEAN_MOTION_DOT = -.1173651E-1
MEAN_MOTION_DDOT = .47013051E-3

CCSDS_OMM_VERS = 2.0
CREATION_DATE  = 
ORIGINATOR     = 

OBJECT_NAME    = STARLINK-36916
OBJECT_ID      = 2026-040H
CENTER_NAME    = EARTH
REF_FRAME      = TEME
TIME_SYSTEM    = UTC
MEAN_ELEMENT_THEORY = SGP/SGP4

EPOCH          = 2026-03-09T22:00:01.999584
MEAN_MOTION    = 16.05627027
ECCENTRICITY   = .00009079
INCLINATION    = 97.2776
RA_OF_ASC_NODE = 17.1179
ARG_OF_PERICENTER = 97.1355
MEAN_ANOMALY   = 268.6661

EPHEMERIS_TYPE = 0
CLASSIFICATION_TYPE = U
NORAD_CAT_ID   = 68022
ELEMENT_SET_NO = 999
REV_AT_EPOCH   = 246
BSTAR          = -.1664591E-2
MEAN_MOTION_DOT = -.1167808E-1
MEAN_MOTION_DDOT = .46640749E-3

CCSDS_OMM_VERS = 2.0
CREATION_DATE  = 
ORIGINATOR     = 

OBJECT_NAME    = STARLINK-36871
OBJECT_ID      = 2026-040J
CENTER_NAME    = EARTH
REF_FRAME      = TEME
TIME_SYSTEM    = UTC
MEAN_ELEMENT_THEORY = SGP/SGP4

EPOCH          = 2026-03-09T22:00:01.999584
MEAN_MOTION    = 16.05731616
ECCENTRICITY   = .00008888
INCLINATION    = 97.2770
RA_OF_ASC_NODE = 17.1185
ARG_OF_PERICENTER = 95.0018
MEAN_ANOMALY   = 273.2998

EPHEMERIS_TYPE = 0
CLASSIFICATION_TYPE = U
NORAD_CAT_ID   = 68023
ELEMENT_SET_NO = 999
REV_AT_EPOCH   = 246
BSTAR          = -.16560484E-2
MEAN_MOTION_DOT = -.116922E-1
MEAN_MOTION_DDOT = .46804614E-3

CCSDS_OMM_VERS = 2.0
CREATION_DATE  = 
ORIGINATOR     = 

OBJECT_NAME    = STARLINK-36891
OBJECT_ID      = 2026-040K
CENTER_NAME    = EARTH
REF_FRAME      = TEME
TIME_SYSTEM    = UTC
MEAN_ELEMENT_THEORY = SGP/SGP4

EPOCH          = 2026-03-09T22:00:01.999584
MEAN_MOTION    = 16.05860831
ECCENTRICITY   = .0000938
INCLINATION    = 97.2769
RA_OF_ASC_NODE = 17.1202
ARG_OF_PERICENTER = 98.8495
MEAN_ANOMALY   = 272.5605

EPHEMERIS_TYPE = 0
CLASSIFICATION_TYPE = U
NORAD_CAT_ID   = 68024
ELEMENT_SET_NO = 999
REV_AT_EPOCH   = 246
BSTAR          = -.16541504E-2
MEAN_MOTION_DOT = -.1177045E-1
MEAN_MOTION_DDOT = .4746005E-3

CCSDS_OMM_VERS = 2.0
CREATION_DATE  = 
ORIGINATOR     = 

OBJECT_NAME    = STARLINK-36378
OBJECT_ID      = 2026-040L
CENTER_NAME    = EARTH
REF_FRAME      = TEME
TIME_SYSTEM    = UTC
MEAN_ELEMENT_THEORY = SGP/SGP4

EPOCH          = 2026-03-09T22:00:01.999584
MEAN_MOTION    = 16.06073686
ECCENTRICITY   = .00008947
INCLINATION    = 97.2777
RA_OF_ASC_NODE = 17.1226
ARG_OF_PERICENTER = 96.2905
MEAN_ANOMALY   = 280.5526

EPHEMERIS_TYPE = 0
CLASSIFICATION_TYPE = U
NORAD_CAT_ID   = 68025
ELEMENT_SET_NO = 999
REV_AT_EPOCH   = 241
BSTAR          = -.16116595E-2
MEAN_MOTION_DOT = -.1161981E-1
MEAN_MOTION_DDOT = .46463912E-3

CCSDS_OMM_VERS = 2.0
CREATION_DATE  = 
ORIGINATOR     = 

OBJECT_NAME    = STARLINK-36884
OBJECT_ID      = 2026-040M
CENTER_NAME    = EARTH
REF_FRAME      = TEME
TIME_SYSTEM    = UTC
MEAN_ELEMENT_THEORY = SGP/SGP4

EPOCH          = 2026-03-09T22:00:01.999584
MEAN_MOTION    = 16.05963331
ECCENTRICITY   = .00008486
INCLINATION    = 97.2773
RA_OF_ASC_NODE = 17.1210
ARG_OF_PERICENTER = 97.8588
MEAN_ANOMALY   = 276.3593

EPHEMERIS_TYPE = 0
CLASSIFICATION_TYPE = U
NORAD_CAT_ID   = 68026
ELEMENT_SET_NO = 999
REV_AT_EPOCH   = 246
BSTAR          = -.1623248E-2
MEAN_MOTION_DOT = -.116245E-1
MEAN_MOTION_DDOT = .46435824E-3

CCSDS_OMM_VERS = 2.0
CREATION_DATE  = 
ORIGINATOR     = 

OBJECT_NAME    = STARLINK-36940
OBJECT_ID      = 2026-040N
CENTER_NAME    = EARTH
REF_FRAME      = TEME
TIME_SYSTEM    = UTC
MEAN_ELEMENT_THEORY = SGP/SGP4

EPOCH          = 2026-03-09T22:00:01.999584
MEAN_MOTION    = 16.07932887
ECCENTRICITY   = .00008666
INCLINATION    = 97.2769
RA_OF_ASC_NODE = 17.1437
ARG_OF_PERICENTER = 84.9989
MEAN_ANOMALY   = 342.7519

EPHEMERIS_TYPE = 0
CLASSIFICATION_TYPE = U
NORAD_CAT_ID   = 68027
ELEMENT_SET_NO = 999
REV_AT_EPOCH   = 256
BSTAR          = -.14176414E-2
MEAN_MOTION_DOT = -.1147173E-1
MEAN_MOTION_DDOT = .46436011E-3

CCSDS_OMM_VERS = 2.0
CREATION_DATE  = 
ORIGINATOR     = 

OBJECT_NAME    = STARLINK-36253
OBJECT_ID      = 2026-040P
CENTER_NAME    = EARTH
REF_FRAME      = TEME
TIME_SYSTEM    = UTC
MEAN_ELEMENT_THEORY = SGP/SGP4

EPOCH          = 2026-03-09T22:00:01.999584
MEAN_MOTION    = 15.93228944
ECCENTRICITY   = .0001759
INCLINATION    = 97.2781
RA_OF_ASC_NODE = 17.0655
ARG_OF_PERICENTER = 108.6946
MEAN_ANOMALY   = 142.6143

EPHEMERIS_TYPE = 0
CLASSIFICATION_TYPE = U
NORAD_CAT_ID   = 68028
ELEMENT_SET_NO = 999
REV_AT_EPOCH   = 256
BSTAR          = -.68778492E-2
MEAN_MOTION_DOT = -.2385062E-1
MEAN_MOTION_DDOT = .15455924E-2

